ONEWEB-0377             
1 49303U 21090AA  23320.39601087  .00000038  00000+0  61432-4 0  9995
2 49303  87.9166 102.3214 0001502 105.9351 254.1948 13.20773032105932
ONEWEB-0378             
1 49304U 21090AB  23320.35918818 -.00000005  00000+0 -43064-4 0  9992
2 49304  87.9173 102.3313 0001733  85.8028 274.3304 13.20770978105198
ONEWEB-0379             
1 49305U 21090AC  23320.40569200 -.00000075  00000+0 -23678-3 0  9991
2 49305  87.8942 117.5751 0001505  88.5448 271.5854 13.14500800103576
ONEWEB-0380             
1 49306U 21090AD  23320.41767559  .00000077  00000+0  15954-3 0  9998
2 49306  87.9169 132.8231 0001624  94.1299 266.0020 13.19723988101943
ONEWEB-0381             
1 49307U 21090AE  23320.53278666 -.00000021  00000+0 -84234-4 0  9997
2 49307  87.9223 102.2719 0001619  99.2132 260.9185 13.20770468105264
ONEWEB-0382             
1 49308U 21090AF  23320.36864559 -.00000443  00000+0 -11212-2 0  9993
2 49308  87.9160 102.3258 0002321  88.7883 271.3516 13.20771436105238
ONEWEB-0383             
1 49309U 21090AG  23320.39934587 -.00000140  00000+0 -41226-3 0  9999
2 49309  87.8950 117.5634 0001610  84.3317 275.7996 13.14505686103609
ONEWEB-0384             
1 49310U 21090AH  23320.36444181 -.00000336  00000+0 -85933-3 0  9994
2 49310  87.9178 102.3308 0002324  85.5210 274.6189 13.20775787105244
